{
  "type": "FeatureCollection",
  "features": [
    {
      "type": "Feature",
      "properties": {
        "norad_id": 29268,
        "name": "ARIRANG-2 (KOMPSAT-2)",
        "group": "resource",
        "lat": -48.667494123373004,
        "lon": -21.710103348007824,
        "alt_km": 688.57211396204,
        "timestamp": "2025-12-04T09:47:37.179210+00:00",
        "meta_object_name": "ARIRANG-2 (KOMPSAT-2)",
        "meta_object_id": "2006-031A",
        "meta_epoch": "2025-12-03T23:28:45.024096",
        "meta_mean_motion": 14.64480919,
        "meta_eccentricity": 0.00139665,
        "meta_inclination": 97.8264,
        "meta_ra_of_asc_node": 166.8783,
        "meta_arg_of_pericenter": 338.1481,
        "meta_mean_anomaly": 146.7616,
        "meta_ephemeris_type": 0,
        "meta_classification_type": "U",
        "meta_norad_cat_id": 29268,
        "meta_element_set_no": 999,
        "meta_rev_at_epoch": 3290,
        "meta_bstar": 0.00012787077,
        "meta_mean_motion_dot": 6.33e-06,
        "meta_mean_motion_ddot": 0,
        "tle_line1": "1 29268U 06031A   25337.97829889  .00000633  00000+0  12787-3 0  9996",
        "tle_line2": "2 29268  97.8264 166.8783 0013966 338.1481 146.7616 14.64480919 32908"
      },
      "geometry": {
        "type": "Point",
        "coordinates": [
          -21.710103348007824,
          -48.667494123373004
        ]
      }
    },
    {
      "type": "Feature",
      "properties": {
        "norad_id": 29709,
        "name": "LAPAN-TUBSAT",
        "group": "resource",
        "lat": -68.17753355530691,
        "lon": 127.4906540786552,
        "alt_km": 627.1159839403499,
        "timestamp": "2025-12-04T09:47:37.179220+00:00",
        "meta_object_name": "LAPAN-TUBSAT",
        "meta_object_id": "2007-001A",
        "meta_epoch": "2025-12-03T22:58:32.596608",
        "meta_mean_motion": 14.85648735,
        "meta_eccentricity": 0.00136008,
        "meta_inclination": 98.1252,
        "meta_ra_of_asc_node": 327.9336,
        "meta_arg_of_pericenter": 100.1495,
        "meta_mean_anomaly": 260.1254,
        "meta_ephemeris_type": 0,
        "meta_classification_type": "U",
        "meta_norad_cat_id": 29709,
        "meta_element_set_no": 999,
        "meta_rev_at_epoch": 2216,
        "meta_bstar": 0.00012671571,
        "meta_mean_motion_dot": 1.042e-05,
        "meta_mean_motion_ddot": 0,
        "tle_line1": "1 29709U 07001A   25337.95732172  .00001042  00000+0  12672-3 0  9998",
        "tle_line2": "2 29709  98.1252 327.9336 0013600 100.1495 260.1254 14.85648735 22161"
      },
      "geometry": {
        "type": "Point",
        "coordinates": [
          127.4906540786552,
          -68.17753355530691
        ]
      }
    },
    {
      "type": "Feature",
      "properties": {
        "norad_id": 31113,
        "name": "HAIYANG-1B",
        "group": "resource",
        "lat": -26.985360255148162,
        "lon": -32.69041059168378,
        "alt_km": 793.8699190981633,
        "timestamp": "2025-12-04T09:47:37.179231+00:00",
        "meta_object_name": "HAIYANG-1B",
        "meta_object_id": "2007-010A",
        "meta_epoch": "2025-12-03T22:10:25.439520",
        "meta_mean_motion": 14.3096051,
        "meta_eccentricity": 0.00145762,
        "meta_inclination": 98.3307,
        "meta_ra_of_asc_node": 322.5666,
        "meta_arg_of_pericenter": 62.3758,
        "meta_mean_anomaly": 297.8904,
        "meta_ephemeris_type": 0,
        "meta_classification_type": "U",
        "meta_norad_cat_id": 31113,
        "meta_element_set_no": 999,
        "meta_rev_at_epoch": 97270,
        "meta_bstar": 0.00011316257,
        "meta_mean_motion_dot": 2.56e-06,
        "meta_mean_motion_ddot": 0,
        "tle_line1": "1 31113U 07010A   25337.92390555  .00000256  00000+0  11316-3 0  9992",
        "tle_line2": "2 31113  98.3307 322.5666 0014576  62.3758 297.8904 14.30960510972708"
      },
      "geometry": {
        "type": "Point",
        "coordinates": [
          -32.69041059168378,
          -26.985360255148162
        ]
      }
    },
    {
      "type": "Feature",
      "properties": {
        "norad_id": 31598,
        "name": "COSMO-SKYMED 1",
        "group": "resource",
        "lat": -80.45740936736733,
        "lon": -71.76506405734351,
        "alt_km": 588.6144409976941,
        "timestamp": "2025-12-04T09:47:37.179242+00:00",
        "meta_object_name": "COSMO-SKYMED 1",
        "meta_object_id": "2007-023A",
        "meta_epoch": "2025-12-03T22:58:49.282176",
        "meta_mean_motion": 14.95663454,
        "meta_eccentricity": 0.00013962,
        "meta_inclination": 97.884,
        "meta_ra_of_asc_node": 163.2998,
        "meta_arg_of_pericenter": 80.2303,
        "meta_mean_anomaly": 279.9075,
        "meta_ephemeris_type": 0,
        "meta_classification_type": "U",
        "meta_norad_cat_id": 31598,
        "meta_element_set_no": 999,
        "meta_rev_at_epoch": 59,
        "meta_bstar": 0.00059473811,
        "meta_mean_motion_dot": 6.558e-05,
        "meta_mean_motion_ddot": 0,
        "tle_line1": "1 31598U 07023A   25337.95751484  .00006558  00000+0  59474-3 0  9996",
        "tle_line2": "2 31598  97.8840 163.2998 0001396  80.2303 279.9075 14.95663454   597"
      },
      "geometry": {
        "type": "Point",
        "coordinates": [
          -71.76506405734351,
          -80.45740936736733
        ]
      }
    },
    {
      "type": "Feature",
      "properties": {
        "norad_id": 31698,
        "name": "TERRASAR-X",
        "group": "resource",
        "lat": -60.251272813669964,
        "lon": -2.862336578796433,
        "alt_km": 516.6812330004414,
        "timestamp": "2025-12-04T09:47:37.179252+00:00",
        "meta_object_name": "TERRASAR-X",
        "meta_object_id": "2007-026A",
        "meta_epoch": "2025-12-03T15:05:32.684928",
        "meta_mean_motion": 15.19160309,
        "meta_eccentricity": 0.0001999,
        "meta_inclination": 97.4447,
        "meta_ra_of_asc_node": 343.1435,
        "meta_arg_of_pericenter": 87.129,
        "meta_mean_anomaly": 273.0173,
        "meta_ephemeris_type": 0,
        "meta_classification_type": "U",
        "meta_norad_cat_id": 31698,
        "meta_element_set_no": 999,
        "meta_rev_at_epoch": 2353,
        "meta_bstar": 0.00010298495,
        "meta_mean_motion_dot": 2.097e-05,
        "meta_mean_motion_ddot": 0,
        "tle_line1": "1 31698U 07026A   25337.62885052  .00002097  00000+0  10298-3 0  9998",
        "tle_line2": "2 31698  97.4447 343.1435 0001999  87.1290 273.0173 15.19160309 23533"
      },
      "geometry": {
        "type": "Point",
        "coordinates": [
          -2.862336578796433,
          -60.251272813669964
        ]
      }
    },
    {
      "type": "Feature",
      "properties": {
        "norad_id": 32060,
        "name": "WORLDVIEW-1 (WV-1)",
        "group": "resource",
        "lat": 41.89651658955287,
        "lon": -77.31084071517962,
        "alt_km": 488.6678471950445,
        "timestamp": "2025-12-04T09:47:37.179262+00:00",
        "meta_object_name": "WORLDVIEW-1 (WV-1)",
        "meta_object_id": "2007-041A",
        "meta_epoch": "2025-12-03T22:09:53.515584",
        "meta_mean_motion": 15.24458131,
        "meta_eccentricity": 7.65e-05,
        "meta_inclination": 97.3841,
        "meta_ra_of_asc_node": 95.5304,
        "meta_arg_of_pericenter": 94.8548,
        "meta_mean_anomaly": 265.2777,
        "meta_ephemeris_type": 0,
        "meta_classification_type": "U",
        "meta_norad_cat_id": 32060,
        "meta_element_set_no": 999,
        "meta_rev_at_epoch": 1313,
        "meta_bstar": 0.0006148464,
        "meta_mean_motion_dot": 0.00015043,
        "meta_mean_motion_ddot": 0,
        "tle_line1": "1 32060U 07041A   25337.92353606  .00015043  00000+0  61485-3 0  9996",
        "tle_line2": "2 32060  97.3841  95.5304 0000765  94.8548 265.2777 15.24458131 13135"
      },
      "geometry": {
        "type": "Point",
        "coordinates": [
          -77.31084071517962,
          41.89651658955287
        ]
      }
    },
    {
      "type": "Feature",
      "properties": {
        "norad_id": 32289,
        "name": "YAOGAN-3",
        "group": "resource",
        "lat": -68.2383103292426,
        "lon": 25.293267062921576,
        "alt_km": 606.7225461857506,
        "timestamp": "2025-12-04T09:47:37.179273+00:00",
        "meta_object_name": "YAOGAN-3",
        "meta_object_id": "2007-055A",
        "meta_epoch": "2025-12-04T00:26:02.800608",
        "meta_mean_motion": 14.89790462,
        "meta_eccentricity": 0.00015001,
        "meta_inclination": 97.8373,
        "meta_ra_of_asc_node": 4.7224,
        "meta_arg_of_pericenter": 78.5011,
        "meta_mean_anomaly": 281.6375,
        "meta_ephemeris_type": 0,
        "meta_classification_type": "U",
        "meta_norad_cat_id": 32289,
        "meta_element_set_no": 999,
        "meta_rev_at_epoch": 97679,
        "meta_bstar": 0.00056170028,
        "meta_mean_motion_dot": 5.335e-05,
        "meta_mean_motion_ddot": 0,
        "tle_line1": "1 32289U 07055A   25338.01808797  .00005335  00000+0  56170-3 0  9999",
        "tle_line2": "2 32289  97.8373   4.7224 0001500  78.5011 281.6375 14.89790462976790"
      },
      "geometry": {
        "type": "Point",
        "coordinates": [
          25.293267062921576,
          -68.2383103292426
        ]
      }
    }
  ]
}